{"type": "FeatureCollection", "features": [ {"type": "Feature", "properties": {"norad_id": 32106, "name": "FENGYUN 1C DEB", "group": "fengyun-1c-debris", "lat": -3.0435165498795578, "lon": -25.01202700285251, "alt_km": 726.8147629016685, "timestamp": "2025-12-25T03:55:56.643501+00:00", "meta": {"OBJECT_NAME": "FENGYUN 1C DEB", "OBJECT_ID": "1999-025CQY", "EPOCH": "2025-12-23T16:36:55.662624", "MEAN_MOTION": 14.27206286, "ECCENTRICITY": 0.01104757, "INCLINATION": 101.4633, "RA_OF_ASC_NODE": 332.4461, "ARG_OF_PERICENTER": 13.7084, "MEAN_ANOMALY": 346.7045, "EPHEMERIS_TYPE": 0, "CLASSIFICATION_TYPE": "U", "NORAD_CAT_ID": 32106, "ELEMENT_SET_NO": 999, "REV_AT_EPOCH": 69548, "BSTAR": 0.0041517084, "MEAN_MOTION_DOT": 0.00010773, "MEAN_MOTION_DDOT": 0}, "tle": {"line1": "1 32106U 99025CQY 25357.69231091  .00010773  00000+0  41517-2 0  9997", "line2": "2 32106 101.4633 332.4461 0110475  13.7084 346.7045 14.27206286695485"}}, "geometry": {"type": "Point", "coordinates": [-25.01202700285251, -3.0435165498795578]}}, {"type": "Feature", "properties": {"norad_id": 32109, "name": "FENGYUN 1C DEB", "group": "fengyun-1c-debris", "lat": 81.59257040998928, "lon": 142.4820758624283, "alt_km": 917.3670282495123, "timestamp": "2025-12-25T03:55:56.643511+00:00", "meta": {"OBJECT_NAME": "FENGYUN 1C DEB", "OBJECT_ID": "1999-025CRB", "EPOCH": "2025-12-22T21:54:44.575488", "MEAN_MOTION": 14.33976388, "ECCENTRICITY": 0.0205156, "INCLINATION": 98.359, "RA_OF_ASC_NODE": 236.1509, "ARG_OF_PERICENTER": 281.9409, "MEAN_ANOMALY": 75.8843, "EPHEMERIS_TYPE": 0, "CLASSIFICATION_TYPE": "U", "NORAD_CAT_ID": 32109, "ELEMENT_SET_NO": 999, "REV_AT_EPOCH": 65034, "BSTAR": 0.00054652989, "MEAN_MOTION_DOT": 1.881e-05, "MEAN_MOTION_DDOT": 0}, "tle": {"line1": "1 32109U 99025CRB 25356.91301592  .00001881  00000+0  54653-3 0  9994", "line2": "2 32109  98.3590 236.1509 0205156 281.9409  75.8843 14.33976388650344"}}, "geometry": {"type": "Point", "coordinates": [142.4820758624283, 81.59257040998928]}}, {"type": "Feature", "properties": {"norad_id": 32110, "name": "FENGYUN 1C DEB", "group": "fengyun-1c-debris", "lat": -67.87278685963996, "lon": -34.91617304286725, "alt_km": 798.603199762083, "timestamp": "2025-12-25T03:55:56.643521+00:00", "meta": {"OBJECT_NAME": "FENGYUN 1C DEB", "OBJECT_ID": "1999-025CRC", "EPOCH": "2025-12-22T23:22:37.139808", "MEAN_MOTION": 14.28961563, "ECCENTRICITY": 0.00335496, "INCLINATION": 99.5437, "RA_OF_ASC_NODE": 167.13, "ARG_OF_PERICENTER": 337.3668, "MEAN_ANOMALY": 174.1359, "EPHEMERIS_TYPE": 0, "CLASSIFICATION_TYPE": "U", "NORAD_CAT_ID": 32110, "ELEMENT_SET_NO": 999, "REV_AT_EPOCH": 64534, "BSTAR": 0.0014667226, "MEAN_MOTION_DOT": 3.68e-05, "MEAN_MOTION_DDOT": 0}, "tle": {"line1": "1 32110U 99025CRC 25356.97404097  .00003680  00000+0  14667-2 0  9995", "line2": "2 32110  99.5437 167.1300 0033549 337.3668 174.1359 14.28961563645341"}}, "geometry": {"type": "Point", "coordinates": [-34.91617304286725, -67.87278685963996]}}, {"type": "Feature", "properties": {"norad_id": 32111, "name": "FENGYUN 1C DEB", "group": "fengyun-1c-debris", "lat": 5.650171570914653, "lon": -2.2867311079671304, "alt_km": 870.6128148020134, "timestamp": "2025-12-25T03:55:56.643532+00:00", "meta": {"OBJECT_NAME": "FENGYUN 1C DEB", "OBJECT_ID": "1999-025CRD", "EPOCH": "2025-12-22T05:44:25.154592", "MEAN_MOTION": 14.31556202, "ECCENTRICITY": 0.01201962, "INCLINATION": 98.4435, "RA_OF_ASC_NODE": 355.7106, "ARG_OF_PERICENTER": 176.6881, "MEAN_ANOMALY": 245.6167, "EPHEMERIS_TYPE": 0, "CLASSIFICATION_TYPE": "U", "NORAD_CAT_ID": 32111, "ELEMENT_SET_NO": 999, "REV_AT_EPOCH": 96167, "BSTAR": 0.00017504889, "MEAN_MOTION_DOT": 4.6e-06, "MEAN_MOTION_DDOT": 0}, "tle": {"line1": "1 32111U 99025CRD 25356.23918003  .00000460  00000+0  17505-3 0  9990", "line2": "2 32111  98.4435 355.7106 0120196 176.6881 245.6167 14.31556202961675"}}, "geometry": {"type": "Point", "coordinates": [-2.2867311079671304, 5.650171570914653]}}, {"type": "Feature", "properties": {"norad_id": 32113, "name": "FENGYUN 1C DEB", "group": "fengyun-1c-debris", "lat": 35.118962428158056, "lon": 27.257510292777294, "alt_km": 1069.490723741541, "timestamp": "2025-12-25T03:55:56.643545+00:00", "meta": {"OBJECT_NAME": "FENGYUN 1C DEB", "OBJECT_ID": "1999-025CRF", "EPOCH": "2025-12-22T20:39:08.544384", "MEAN_MOTION": 13.9458115, "ECCENTRICITY": 0.0238461, "INCLINATION": 99.0255, "RA_OF_ASC_NODE": 31.4218, "ARG_OF_PERICENTER": 198.943, "MEAN_ANOMALY": 160.2746, "EPHEMERIS_TYPE": 0, "CLASSIFICATION_TYPE": "U", "NORAD_CAT_ID": 32113, "ELEMENT_SET_NO": 999, "REV_AT_EPOCH": 63027, "BSTAR": 0.0006327, "MEAN_MOTION_DOT": 1.027e-05, "MEAN_MOTION_DDOT": 0}, "tle": {"line1": "1 32113U 99025CRF 25356.86051556  .00001027  00000+0  63270-3 0  9992", "line2": "2 32113  99.0255  31.4218 0238461 198.9430 160.2746 13.94581150630270"}}, "geometry": {"type": "Point", "coordinates": [27.257510292777294, 35.118962428158056]}}, {"type": "Feature", "properties": {"norad_id": 32114, "name": "FENGYUN 1C DEB", "group": "fengyun-1c-debris", "lat": -69.16675710830684, "lon": -88.35881331776214, "alt_km": 626.4694987284556, "timestamp": "2025-12-25T03:55:56.643558+00:00", "meta": {"OBJECT_NAME": "FENGYUN 1C DEB", "OBJECT_ID": "1999-025CRG", "EPOCH": "2025-12-06T13:19:21.641376", "MEAN_MOTION": 14.76489439, "ECCENTRICITY": 0.00447682, "INCLINATION": 99.9287, "RA_OF_ASC_NODE": 96.1919, "ARG_OF_PERICENTER": 3.5911, "MEAN_ANOMALY": 356.5605, "EPHEMERIS_TYPE": 0, "CLASSIFICATION_TYPE": "U", "NORAD_CAT_ID": 32114, "ELEMENT_SET_NO": 999, "REV_AT_EPOCH": 65638, "BSTAR": 0.0040574802, "MEAN_MOTION_DOT": 0.0002877, "MEAN_MOTION_DDOT": 0}, "tle": {"line1": "1 32114U 99025CRG 25340.55511159  .00028770  00000+0  40575-2 0  9998", "line2": "2 32114  99.9287  96.1919 0044768   3.5911 356.5605 14.76489439656383"}}, "geometry": {"type": "Point", "coordinates": [-88.35881331776214, -69.16675710830684]}}, {"type": "Feature", "properties": {"norad_id": 32117, "name": "FENGYUN 1C DEB", "group": "fengyun-1c-debris", "lat": -32.63132992757698, "lon": -141.32187242022522, "alt_km": 836.1824024056905, "timestamp": "2025-12-25T03:55:56.643570+00:00", "meta": {"OBJECT_NAME": "FENGYUN 1C DEB", "OBJECT_ID": "1999-025CRK", "EPOCH": "2025-12-22T09:10:09.164064", "MEAN_MOTION": 14.23981803, "ECCENTRICITY": 0.00278217, "INCLINATION": 98.6161, "RA_OF_ASC_NODE": 41.5233, "ARG_OF_PERICENTER": 65.2411, "MEAN_ANOMALY": 295.1659, "EPHEMERIS_TYPE": 0, "CLASSIFICATION_TYPE": "U", "NORAD_CAT_ID": 32117, "ELEMENT_SET_NO": 999, "REV_AT_EPOCH": 94934, "BSTAR": 0.00096836354, "MEAN_MOTION_DOT": 2.189e-05, "MEAN_MOTION_DDOT": 0}, "tle": {"line1": "1 32117U 99025CRK 25356.38205051  .00002189  00000+0  96836-3 0  9998", "line2": "2 32117  98.6161  41.5233 0027821  65.2411 295.1659 14.23981803949349"}}, "geometry": {"type": "Point", "coordinates": [-141.32187242022522, -32.63132992757698]}}, {"type": "Feature", "properties": {"norad_id": 32119, "name": "FENGYUN 1C DEB", "group": "fengyun-1c-debris", "lat": 13.558681296158852, "lon": -139.67825081013225, "alt_km": 822.6101195818655, "timestamp": "2025-12-25T03:55:56.643580+00:00", "meta": {"OBJECT_NAME": "FENGYUN 1C DEB", "OBJECT_ID": "1999-025CRM", "EPOCH": "2025-12-21T09:08:50.463168", "MEAN_MOTION": 14.02839478, "ECCENTRICITY": 0.00860891, "INCLINATION": 99.8866, "RA_OF_ASC_NODE": 218.6288, "ARG_OF_PERICENTER": 29.2524, "MEAN_ANOMALY": 331.342, "EPHEMERIS_TYPE": 0, "CLASSIFICATION_TYPE": "U", "NORAD_CAT_ID": 32119, "ELEMENT_SET_NO": 999, "REV_AT_EPOCH": 93849, "BSTAR": 0.00056371909, "MEAN_MOTION_DOT": 8.5e-06, "MEAN_MOTION_DDOT": 0}, "tle": {"line1": "1 32119U 99025CRM 25355.38113962  .00000850  00000+0  56372-3 0  9992", "line2": "2 32119  99.8866 218.6288 0086089  29.2524 331.3420 14.02839478938499"}}, "geometry": {"type": "Point", "coordinates": [-139.67825081013225, 13.558681296158852]}}, {"type": "Feature", "properties": {"norad_id": 32123, "name": "FENGYUN 1C DEB", "group": "fengyun-1c-debris", "lat": 25.945613985458507, "lon": 163.58886319970344, "alt_km": 760.9513059236688, "timestamp": "2025-12-25T03:55:56.643591+00:00", "meta": {"OBJECT_NAME": "FENGYUN 1C DEB", "OBJECT_ID": "1999-025CRR", "EPOCH": "2025-12-23T22:57:48.720096", "MEAN_MOTION": 14.61499301, "ECCENTRICITY": 0.0159464, "INCLINATION": 98.9406, "RA_OF_ASC_NODE": 166.6775, "ARG_OF_PERICENTER": 258.6676, "MEAN_ANOMALY": 259.3308, "EPHEMERIS_TYPE": 0, "CLASSIFICATION_TYPE": "U", "NORAD_CAT_ID": 32123, "ELEMENT_SET_NO": 999, "REV_AT_EPOCH": 71538, "BSTAR": 0.00030979, "MEAN_MOTION_DOT": 1.774e-05, "MEAN_MOTION_DDOT": 0}, "tle": {"line1": "1 32123U 99025CRR 25357.95681389  .00001774  00000+0  30979-3 0  9996", "line2": "2 32123  98.9406 166.6775 0159464 258.6676 259.3308 14.61499301715388"}}, "geometry": {"type": "Point", "coordinates": [163.58886319970344, 25.945613985458507]}}, {"type": "Feature", "properties": {"norad_id": 32125, "name": "FENGYUN 1C DEB", "group": "fengyun-1c-debris", "lat": -11.278251839624541, "lon": 159.05499153728297, "alt_km": 669.5798042493934, "timestamp": "2025-12-25T03:55:56.643601+00:00", "meta": {"OBJECT_NAME": "FENGYUN 1C DEB", "OBJECT_ID": "1999-025CRT", "EPOCH": "2025-12-23T16:44:51.530496", "MEAN_MOTION": 14.70223503, "ECCENTRICITY": 0.01727232, "INCLINATION": 99.0646, "RA_OF_ASC_NODE": 339.2508, "ARG_OF_PERICENTER": 289.2149, "MEAN_ANOMALY": 69.0435, "EPHEMERIS_TYPE": 0, "CLASSIFICATION_TYPE": "U", "NORAD_CAT_ID": 32125, "ELEMENT_SET_NO": 999, "REV_AT_EPOCH": 70684, "BSTAR": 0.0023171985, "MEAN_MOTION_DOT": 0.00017568, "MEAN_MOTION_DDOT": 0}, "tle": {"line1": "1 32125U 99025CRT 25357.69781864  .00017568  00000+0  23172-2 0  9992", "line2": "2 32125  99.0646 339.2508 0172723 289.2149  69.0435 14.70223503706845"}}, "geometry": {"type": "Point", "coordinates": [159.05499153728297, -11.278251839624541]}}]}